2018/03/10
Mamoru Kaminaga
This sketch displayes satellite orbit.

TLE used for the calculation.
FO-29                   
1 24278U 96046B   03232.95303700 -.00000056  00000-0 -24068-4 0 06270
2 24278 098.5660 359.5477 0351513 101.3348 262.7487 13.52885302346104
line 0
name:FO-29                   

line 1
sat_num:24278
classification:U
id_1:96
id_2:46
id_3:B  
epoch year:3
epoch days:232.95303345
ndot:-0.00000056
nddot:0.00000000
bstar:-0.00002407
model:0
s_num:627

line 2
inclo:98.56600189
nodeo:359.54769897
ecco:0.03515130
argpo:101.33480072
mo:262.74868774
no:13.52885342
rev:34610

--------------------
MJD(epoch) 52871.95303700
incl(rad) 1.72030126
ennc 0.03515130
n(rev/day) 13.52885342
n(rad) 4.58613169
a(m) 7439798.61885105
node(rad) 6.27529122
argp(rad) 1.76862576

E(rad) 4.55143473
orbit plane X(m) -1453822.20702247
orbit plane Y(m) -7339099.40851048

ECI X(m) 7481437.31862686
ECI Y(m) -61588.38033653
ECI Z(m) 16782.62480621

theta g(rad) 5.44460040
ECEF X(m) 5047262.94028959
ECEF Y(m) 5522756.04139043
ECEF Z(m) 16782.62480621

lambda(deg) 139.63438500
phi(deg) 35.77602870
dist(m) 9961159.55495622
az(deg) 271.46344221
el(deg) -41.33624514


--------------------
MJD(epoch) 52872.45303700
incl(rad) 1.72030126
ennc 0.03515130
n(rev/day) 13.52885314
n(rad) 3.10598060
a(m) 7439798.61885105
node(rad) 6.28286579
argp(rad) 1.74601953

E(rad) 3.10718967
orbit plane X(m) -7696914.89638489
orbit plane Y(m) 255742.62123529

ECI X(m) 1090323.38924078
ECI Y(m) 1135182.27958689
ECI Z(m) -7538597.96709536

theta g(rad) 2.31160914
ECEF X(m) 101827.88756271
ECEF Y(m) -1570692.51679892
ECEF Z(m) -7538597.96709536

lambda(deg) 139.63438500
phi(deg) 35.77602870
dist(m) 12928571.39181178
az(deg) 168.29026997
el(deg) -64.47132618


--------------------
MJD(epoch) 52875.23303700
incl(rad) 1.72030126
ennc 0.03515130
n(rev/day) 13.52885158
n(rad) 0.65685503
a(m) 7439798.61885105
node(rad) 0.04179507
argp(rad) 1.62032891

E(rad) 0.67892862
orbit plane X(m) 5528474.52809743
orbit plane Y(m) 4669005.67518615

ECI X(m) -4899769.87896894
ECI Y(m) -993609.99761802
ECI Z(m) 5231504.45938114

theta g(rad) 0.97713213
ECEF X(m) -3564540.95049559
ECEF Y(m) 3505574.63284663
ECEF Z(m) 5231504.45938114

lambda(deg) 139.63438500
phi(deg) 35.77602870
dist(m) 1577930.06327322
az(deg) 344.96961106
el(deg) 27.68102375

